CCSDS_OMM_VERS = 2.0
CREATION_DATE  = 
ORIGINATOR     = 

OBJECT_NAME    = STARLINK-36409
OBJECT_ID      = 2026-005C
CENTER_NAME    = EARTH
REF_FRAME      = TEME
TIME_SYSTEM    = UTC
MEAN_ELEMENT_THEORY = SGP/SGP4

EPOCH          = 2026-02-05T04:00:01.999584
MEAN_MOTION    = 15.47941916
ECCENTRICITY   = .0001086
INCLINATION    = 43.0000
RA_OF_ASC_NODE = 64.4955
ARG_OF_PERICENTER = 274.0093
MEAN_ANOMALY   = 306.9989

EPHEMERIS_TYPE = 0
CLASSIFICATION_TYPE = U
NORAD_CAT_ID   = 67406
ELEMENT_SET_NO = 999
REV_AT_EPOCH   = 495
BSTAR          = -.43456E-1
MEAN_MOTION_DOT = -.2065049E-1
MEAN_MOTION_DDOT = 0

CCSDS_OMM_VERS = 2.0
CREATION_DATE  = 
ORIGINATOR     = 

OBJECT_NAME    = STARLINK-36510
OBJECT_ID      = 2026-005D
CENTER_NAME    = EARTH
REF_FRAME      = TEME
TIME_SYSTEM    = UTC
MEAN_ELEMENT_THEORY = SGP/SGP4

EPOCH          = 2026-02-05T03:01:54.061824
MEAN_MOTION    = 15.50601361
ECCENTRICITY   = .0001142
INCLINATION    = 42.9998
RA_OF_ASC_NODE = 64.7194
ARG_OF_PERICENTER = 274.4358
MEAN_ANOMALY   = 85.6371

EPHEMERIS_TYPE = 0
CLASSIFICATION_TYPE = U
NORAD_CAT_ID   = 67407
ELEMENT_SET_NO = 999
REV_AT_EPOCH   = 368
BSTAR          = .25728E-2
MEAN_MOTION_DOT = .153714E-2
MEAN_MOTION_DDOT = 0

CCSDS_OMM_VERS = 2.0
CREATION_DATE  = 
ORIGINATOR     = 

OBJECT_NAME    = STARLINK-36509
OBJECT_ID      = 2026-005E
CENTER_NAME    = EARTH
REF_FRAME      = TEME
TIME_SYSTEM    = UTC
MEAN_ELEMENT_THEORY = SGP/SGP4

EPOCH          = 2026-02-05T03:01:24.441312
MEAN_MOTION    = 15.50612052
ECCENTRICITY   = .0001187
INCLINATION    = 42.9993
RA_OF_ASC_NODE = 64.7166
ARG_OF_PERICENTER = 290.4596
MEAN_ANOMALY   = 69.6136

EPHEMERIS_TYPE = 0
CLASSIFICATION_TYPE = U
NORAD_CAT_ID   = 67408
ELEMENT_SET_NO = 999
REV_AT_EPOCH   = 367
BSTAR          = .22802E-2
MEAN_MOTION_DOT = .135937E-2
MEAN_MOTION_DDOT = 0

CCSDS_OMM_VERS = 2.0
CREATION_DATE  = 
ORIGINATOR     = 

OBJECT_NAME    = STARLINK-36507
OBJECT_ID      = 2026-005F
CENTER_NAME    = EARTH
REF_FRAME      = TEME
TIME_SYSTEM    = UTC
MEAN_ELEMENT_THEORY = SGP/SGP4

EPOCH          = 2026-02-05T03:00:54.715392
MEAN_MOTION    = 15.50598797
ECCENTRICITY   = .0001083
INCLINATION    = 42.9996
RA_OF_ASC_NODE = 64.7140
ARG_OF_PERICENTER = 246.3989
MEAN_ANOMALY   = 113.6758

EPHEMERIS_TYPE = 0
CLASSIFICATION_TYPE = U
NORAD_CAT_ID   = 67409
ELEMENT_SET_NO = 999
REV_AT_EPOCH   = 368
BSTAR          = .163E-2
MEAN_MOTION_DOT = .96535E-3
MEAN_MOTION_DDOT = 0

CCSDS_OMM_VERS = 2.0
CREATION_DATE  = 
ORIGINATOR     = 

OBJECT_NAME    = STARLINK-36508
OBJECT_ID      = 2026-005G
CENTER_NAME    = EARTH
REF_FRAME      = TEME
TIME_SYSTEM    = UTC
MEAN_ELEMENT_THEORY = SGP/SGP4

EPOCH          = 2026-02-05T04:00:01.999584
MEAN_MOTION    = 15.40650124
ECCENTRICITY   = .0001401
INCLINATION    = 43.0000
RA_OF_ASC_NODE = 64.5654
ARG_OF_PERICENTER = 262.2581
MEAN_ANOMALY   = 289.9904

EPHEMERIS_TYPE = 0
CLASSIFICATION_TYPE = U
NORAD_CAT_ID   = 67410
ELEMENT_SET_NO = 999
REV_AT_EPOCH   = 495
BSTAR          = .10034E-2
MEAN_MOTION_DOT = .41769E-3
MEAN_MOTION_DDOT = 0

CCSDS_OMM_VERS = 2.0
CREATION_DATE  = 
ORIGINATOR     = 

OBJECT_NAME    = STARLINK-36503
OBJECT_ID      = 2026-005H
CENTER_NAME    = EARTH
REF_FRAME      = TEME
TIME_SYSTEM    = UTC
MEAN_ELEMENT_THEORY = SGP/SGP4

EPOCH          = 2026-02-05T02:59:55.357728
MEAN_MOTION    = 15.50598171
ECCENTRICITY   = .0001036
INCLINATION    = 42.9995
RA_OF_ASC_NODE = 64.7076
ARG_OF_PERICENTER = 235.3964
MEAN_ANOMALY   = 124.6798

EPHEMERIS_TYPE = 0
CLASSIFICATION_TYPE = U
NORAD_CAT_ID   = 67411
ELEMENT_SET_NO = 999
REV_AT_EPOCH   = 368
BSTAR          = .1831E-2
MEAN_MOTION_DOT = .108648E-2
MEAN_MOTION_DDOT = 0

CCSDS_OMM_VERS = 2.0
CREATION_DATE  = 
ORIGINATOR     = 

OBJECT_NAME    = STARLINK-36446
OBJECT_ID      = 2026-005J
CENTER_NAME    = EARTH
REF_FRAME      = TEME
TIME_SYSTEM    = UTC
MEAN_ELEMENT_THEORY = SGP/SGP4

EPOCH          = 2026-02-05T02:59:30.713856
MEAN_MOTION    = 15.50213756
ECCENTRICITY   = .0000667
INCLINATION    = 42.9994
RA_OF_ASC_NODE = 64.7049
ARG_OF_PERICENTER = 217.7472
MEAN_ANOMALY   = 142.3341

EPHEMERIS_TYPE = 0
CLASSIFICATION_TYPE = U
NORAD_CAT_ID   = 67412
ELEMENT_SET_NO = 999
REV_AT_EPOCH   = 368
BSTAR          = -.34969E-2
MEAN_MOTION_DOT = -.197787E-2
MEAN_MOTION_DDOT = 0

CCSDS_OMM_VERS = 2.0
CREATION_DATE  = 
ORIGINATOR     = 

OBJECT_NAME    = STARLINK-36442
OBJECT_ID      = 2026-005K
CENTER_NAME    = EARTH
REF_FRAME      = TEME
TIME_SYSTEM    = UTC
MEAN_ELEMENT_THEORY = SGP/SGP4

EPOCH          = 2026-02-05T02:58:56.197056
MEAN_MOTION    = 15.50597380
ECCENTRICITY   = .000093
INCLINATION    = 42.9993
RA_OF_ASC_NODE = 64.7013
ARG_OF_PERICENTER = 223.9396
MEAN_ANOMALY   = 136.1390

EPHEMERIS_TYPE = 0
CLASSIFICATION_TYPE = U
NORAD_CAT_ID   = 67413
ELEMENT_SET_NO = 999
REV_AT_EPOCH   = 368
BSTAR          = .2248E-2
MEAN_MOTION_DOT = .133905E-2
MEAN_MOTION_DDOT = 0

CCSDS_OMM_VERS = 2.0
CREATION_DATE  = 
ORIGINATOR     = 

OBJECT_NAME    = STARLINK-36506
OBJECT_ID      = 2026-005L
CENTER_NAME    = EARTH
REF_FRAME      = TEME
TIME_SYSTEM    = UTC
MEAN_ELEMENT_THEORY = SGP/SGP4

EPOCH          = 2026-02-05T01:25:12.151488
MEAN_MOTION    = 15.56210009
ECCENTRICITY   = .0032091
INCLINATION    = 42.9998
RA_OF_ASC_NODE = 65.0751
ARG_OF_PERICENTER = 230.0758
MEAN_ANOMALY   = 129.7283

EPHEMERIS_TYPE = 0
CLASSIFICATION_TYPE = U
NORAD_CAT_ID   = 67414
ELEMENT_SET_NO = 999
REV_AT_EPOCH   = 367
BSTAR          = .49538E-1
MEAN_MOTION_DOT = .4179117E-1
MEAN_MOTION_DDOT = 0

CCSDS_OMM_VERS = 2.0
CREATION_DATE  = 
ORIGINATOR     = 

OBJECT_NAME    = STARLINK-36468
OBJECT_ID      = 2026-005M
CENTER_NAME    = EARTH
REF_FRAME      = TEME
TIME_SYSTEM    = UTC
MEAN_ELEMENT_THEORY = SGP/SGP4

EPOCH          = 2026-02-05T02:57:56.848896
MEAN_MOTION    = 15.50621381
ECCENTRICITY   = .0001112
INCLINATION    = 42.9995
RA_OF_ASC_NODE = 64.6966
ARG_OF_PERICENTER = 253.1282
MEAN_ANOMALY   = 106.9456

EPHEMERIS_TYPE = 0
CLASSIFICATION_TYPE = U
NORAD_CAT_ID   = 67415
ELEMENT_SET_NO = 999
REV_AT_EPOCH   = 368
BSTAR          = .22848E-2
MEAN_MOTION_DOT = .136258E-2
MEAN_MOTION_DDOT = 0

CCSDS_OMM_VERS = 2.0
CREATION_DATE  = 
ORIGINATOR     = 

OBJECT_NAME    = STARLINK-36487
OBJECT_ID      = 2026-005N
CENTER_NAME    = EARTH
REF_FRAME      = TEME
TIME_SYSTEM    = UTC
MEAN_ELEMENT_THEORY = SGP/SGP4

EPOCH          = 2026-02-05T04:00:01.999584
MEAN_MOTION    = 15.42422637
ECCENTRICITY   = .0000775
INCLINATION    = 42.9998
RA_OF_ASC_NODE = 64.5062
ARG_OF_PERICENTER = 263.7945
MEAN_ANOMALY   = 312.1924

EPHEMERIS_TYPE = 0
CLASSIFICATION_TYPE = U
NORAD_CAT_ID   = 67416
ELEMENT_SET_NO = 999
REV_AT_EPOCH   = 495
BSTAR          = -.53499E-1
MEAN_MOTION_DOT = -.2096312E-1
MEAN_MOTION_DDOT = 0

CCSDS_OMM_VERS = 2.0
CREATION_DATE  = 
ORIGINATOR     = 

OBJECT_NAME    = STARLINK-36374
OBJECT_ID      = 2026-005P
CENTER_NAME    = EARTH
REF_FRAME      = TEME
TIME_SYSTEM    = UTC
MEAN_ELEMENT_THEORY = SGP/SGP4

EPOCH          = 2026-02-05T02:56:57.672672
MEAN_MOTION    = 15.50605550
ECCENTRICITY   = .0001368
INCLINATION    = 42.9996
RA_OF_ASC_NODE = 64.6909
ARG_OF_PERICENTER = 285.8986
MEAN_ANOMALY   = 74.1723

EPHEMERIS_TYPE = 0
CLASSIFICATION_TYPE = U
NORAD_CAT_ID   = 67417
ELEMENT_SET_NO = 999
REV_AT_EPOCH   = 368
BSTAR          = .18812E-2
MEAN_MOTION_DOT = .111713E-2
MEAN_MOTION_DDOT = 0

