STARLINK-36409          
1 67406U 26005C   26036.16668981 -.02065049  00000+0 -43456-1 0  9998
2 67406  43.0000  64.4955 0001086 274.0093 306.9989 15.47941916  4954
STARLINK-36510          
1 67407U 26005D   26036.12632016  .00153714  00000+0  25728-2 0  9991
2 67407  42.9998  64.7194 0001142 274.4358  85.6371 15.50601361  3684
STARLINK-36509          
1 67408U 26005E   26036.12597733  .00135937  00000+0  22802-2 0  9995
2 67408  42.9993  64.7166 0001187 290.4596  69.6136 15.50612052  3679
STARLINK-36507          
1 67409U 26005F   26036.12563328  .00096535  00000+0  16300-2 0  9995
2 67409  42.9996  64.7140 0001083 246.3989 113.6758 15.50598797  3686
STARLINK-36508          
1 67410U 26005G   26036.16668981  .00041769  00000+0  10034-2 0  9999
2 67410  43.0000  64.5654 0001401 262.2581 289.9904 15.40650124  4956
STARLINK-36503          
1 67411U 26005H   26036.12494627  .00108648  00000+0  18310-2 0  9995
2 67411  42.9995  64.7076 0001036 235.3964 124.6798 15.50598171  3687
STARLINK-36446          
1 67412U 26005J   26036.12466104 -.00197787  00000+0 -34969-2 0  9997
2 67412  42.9994  64.7049 0000667 217.7472 142.3341 15.50213756  3688
STARLINK-36442          
1 67413U 26005K   26036.12426154  .00133905  00000+0  22480-2 0  9994
2 67413  42.9993  64.7013 0000930 223.9396 136.1390 15.50597380  3689
STARLINK-36506          
1 67414U 26005L   26036.05916842  .04179117  00000+0  49538-1 0  9996
2 67414  42.9998  65.0751 0032091 230.0758 129.7283 15.56210009  3676
STARLINK-36468          
1 67415U 26005M   26036.12357464  .00136258  00000+0  22848-2 0  9995
2 67415  42.9995  64.6966 0001112 253.1282 106.9456 15.50621381  3688
STARLINK-36487          
1 67416U 26005N   26036.16668981 -.02096312  00000+0 -53499-1 0  9994
2 67416  42.9998  64.5062 0000775 263.7945 312.1924 15.42422637  4951
STARLINK-36374          
1 67417U 26005P   26036.12288973  .00111713  00000+0  18812-2 0  9990
2 67417  42.9996  64.6909 0001368 285.8986  74.1723 15.50605550  3687
